STARLINK-36365          
1 67666U 26022U   26041.58336806 -.01662309  80050-3 -42264-2 0  9990
2 67666  97.2805  74.1693 0001432  90.4222  77.1073 15.95541574  2534
STARLINK-36622          
1 67667U 26022V   26041.58336806 -.01667665  80730-3 -41877-2 0  9995
2 67667  97.2804  74.1708 0001488  99.8516  71.4841 15.95774131  2538
STARLINK-36625          
1 67668U 26022W   26041.58336806 -.01645004  78905-3 -40766-2 0  9996
2 67668  97.2800  74.1725 0001474  98.1892  77.2622 15.96017081  2534
STARLINK-36639          
1 67669U 26022X   26041.58336806 -.01641759  78816-3 -40166-2 0  9995
2 67669  97.2801  74.1745 0001465  91.9410  87.4427 15.96255207  2535
STARLINK-36596          
1 67670U 26022Y   26041.58336806 -.01639682  78795-3 -39693-2 0  9998
2 67670  97.2796  74.1756 0001420  99.5136  83.1525 15.96451001  2534
STARLINK-36297          
1 67671U 26022Z   26041.58336806 -.01627826  78003-3 -38734-2 0  9993
2 67671  97.2794  74.1778 0001495  96.8375  91.3535 15.96766952  2530
STARLINK-36616          
1 67672U 26022AA  26041.58336806 -.01626370  77748-3 -39015-2 0  9995
2 67672  97.2797  74.1769 0001486  93.6970  91.9062 15.96616912  2531
COSMOS 2600             
1 67674U 26023A   26041.59278407  .00072604  00000+0  36233-3 0  9996
2 67674  96.6495 118.0877 0002088  67.6151 292.5341 15.81659645   766
2026-023B               
1 67675U 26023B   26037.83165961  .00002946  00000+0  13032-3 0  9993
2 67675  96.6397 114.3547 0017219 239.3232 120.6310 15.22205300   162
2026-023C               
1 67676U 26023C   26037.83163995  .00006231  00000+0  27219-3 0  9992
2 67676  96.6444 114.3671 0018177 231.2308 128.7307 15.22258115   159
2026-023D               
1 67677U 26023D   26041.57870117  .00010473  00000+0  45553-3 0  9994
2 67677  96.6475 117.6635 0018573 222.9033 137.0757 15.22250872   729
2026-023E               
1 67678U 26023E   26037.83165436  .00006205  00000+0  27128-3 0  9996
2 67678  96.6374 114.3623 0018163 237.2347 122.7142 15.22227869   157
