CCSDS_OMM_VERS = 2.0
CREATION_DATE  = 
ORIGINATOR     = 

OBJECT_NAME    = STARLINK-36365
OBJECT_ID      = 2026-022U
CENTER_NAME    = EARTH
REF_FRAME      = TEME
TIME_SYSTEM    = UTC
MEAN_ELEMENT_THEORY = SGP/SGP4

EPOCH          = 2026-02-10T14:00:03.000384
MEAN_MOTION    = 15.95541574
ECCENTRICITY   = .00014323
INCLINATION    = 97.2805
RA_OF_ASC_NODE = 74.1693
ARG_OF_PERICENTER = 90.4222
MEAN_ANOMALY   = 77.1073

EPHEMERIS_TYPE = 0
CLASSIFICATION_TYPE = U
NORAD_CAT_ID   = 67666
ELEMENT_SET_NO = 999
REV_AT_EPOCH   = 253
BSTAR          = -.42264286E-2
MEAN_MOTION_DOT = -.1662309E-1
MEAN_MOTION_DDOT = .80050433E-3

CCSDS_OMM_VERS = 2.0
CREATION_DATE  = 
ORIGINATOR     = 

OBJECT_NAME    = STARLINK-36622
OBJECT_ID      = 2026-022V
CENTER_NAME    = EARTH
REF_FRAME      = TEME
TIME_SYSTEM    = UTC
MEAN_ELEMENT_THEORY = SGP/SGP4

EPOCH          = 2026-02-10T14:00:03.000384
MEAN_MOTION    = 15.95774131
ECCENTRICITY   = .0001488
INCLINATION    = 97.2804
RA_OF_ASC_NODE = 74.1708
ARG_OF_PERICENTER = 99.8516
MEAN_ANOMALY   = 71.4841

EPHEMERIS_TYPE = 0
CLASSIFICATION_TYPE = U
NORAD_CAT_ID   = 67667
ELEMENT_SET_NO = 999
REV_AT_EPOCH   = 253
BSTAR          = -.41876977E-2
MEAN_MOTION_DOT = -.1667665E-1
MEAN_MOTION_DDOT = .80730002E-3

CCSDS_OMM_VERS = 2.0
CREATION_DATE  = 
ORIGINATOR     = 

OBJECT_NAME    = STARLINK-36625
OBJECT_ID      = 2026-022W
CENTER_NAME    = EARTH
REF_FRAME      = TEME
TIME_SYSTEM    = UTC
MEAN_ELEMENT_THEORY = SGP/SGP4

EPOCH          = 2026-02-10T14:00:03.000384
MEAN_MOTION    = 15.96017081
ECCENTRICITY   = .00014749
INCLINATION    = 97.2800
RA_OF_ASC_NODE = 74.1725
ARG_OF_PERICENTER = 98.1892
MEAN_ANOMALY   = 77.2622

EPHEMERIS_TYPE = 0
CLASSIFICATION_TYPE = U
NORAD_CAT_ID   = 67668
ELEMENT_SET_NO = 999
REV_AT_EPOCH   = 253
BSTAR          = -.40765969E-2
MEAN_MOTION_DOT = -.1645004E-1
MEAN_MOTION_DDOT = .78904545E-3

CCSDS_OMM_VERS = 2.0
CREATION_DATE  = 
ORIGINATOR     = 

OBJECT_NAME    = STARLINK-36639
OBJECT_ID      = 2026-022X
CENTER_NAME    = EARTH
REF_FRAME      = TEME
TIME_SYSTEM    = UTC
MEAN_ELEMENT_THEORY = SGP/SGP4

EPOCH          = 2026-02-10T14:00:03.000384
MEAN_MOTION    = 15.96255207
ECCENTRICITY   = .0001465
INCLINATION    = 97.2801
RA_OF_ASC_NODE = 74.1745
ARG_OF_PERICENTER = 91.9410
MEAN_ANOMALY   = 87.4427

EPHEMERIS_TYPE = 0
CLASSIFICATION_TYPE = U
NORAD_CAT_ID   = 67669
ELEMENT_SET_NO = 999
REV_AT_EPOCH   = 253
BSTAR          = -.40166185E-2
MEAN_MOTION_DOT = -.1641759E-1
MEAN_MOTION_DDOT = .78815544E-3

CCSDS_OMM_VERS = 2.0
CREATION_DATE  = 
ORIGINATOR     = 

OBJECT_NAME    = STARLINK-36596
OBJECT_ID      = 2026-022Y
CENTER_NAME    = EARTH
REF_FRAME      = TEME
TIME_SYSTEM    = UTC
MEAN_ELEMENT_THEORY = SGP/SGP4

EPOCH          = 2026-02-10T14:00:03.000384
MEAN_MOTION    = 15.96451001
ECCENTRICITY   = .00014209
INCLINATION    = 97.2796
RA_OF_ASC_NODE = 74.1756
ARG_OF_PERICENTER = 99.5136
MEAN_ANOMALY   = 83.1525

EPHEMERIS_TYPE = 0
CLASSIFICATION_TYPE = U
NORAD_CAT_ID   = 67670
ELEMENT_SET_NO = 999
REV_AT_EPOCH   = 253
BSTAR          = -.39693192E-2
MEAN_MOTION_DOT = -.1639682E-1
MEAN_MOTION_DDOT = .78795115E-3

CCSDS_OMM_VERS = 2.0
CREATION_DATE  = 
ORIGINATOR     = 

OBJECT_NAME    = STARLINK-36297
OBJECT_ID      = 2026-022Z
CENTER_NAME    = EARTH
REF_FRAME      = TEME
TIME_SYSTEM    = UTC
MEAN_ELEMENT_THEORY = SGP/SGP4

EPOCH          = 2026-02-10T14:00:03.000384
MEAN_MOTION    = 15.96766952
ECCENTRICITY   = .00014958
INCLINATION    = 97.2794
RA_OF_ASC_NODE = 74.1778
ARG_OF_PERICENTER = 96.8375
MEAN_ANOMALY   = 91.3535

EPHEMERIS_TYPE = 0
CLASSIFICATION_TYPE = U
NORAD_CAT_ID   = 67671
ELEMENT_SET_NO = 999
REV_AT_EPOCH   = 253
BSTAR          = -.3873377E-2
MEAN_MOTION_DOT = -.1627826E-1
MEAN_MOTION_DDOT = .7800307E-3

CCSDS_OMM_VERS = 2.0
CREATION_DATE  = 
ORIGINATOR     = 

OBJECT_NAME    = STARLINK-36616
OBJECT_ID      = 2026-022AA
CENTER_NAME    = EARTH
REF_FRAME      = TEME
TIME_SYSTEM    = UTC
MEAN_ELEMENT_THEORY = SGP/SGP4

EPOCH          = 2026-02-10T14:00:03.000384
MEAN_MOTION    = 15.96616912
ECCENTRICITY   = .00014863
INCLINATION    = 97.2797
RA_OF_ASC_NODE = 74.1769
ARG_OF_PERICENTER = 93.6970
MEAN_ANOMALY   = 91.9062

EPHEMERIS_TYPE = 0
CLASSIFICATION_TYPE = U
NORAD_CAT_ID   = 67672
ELEMENT_SET_NO = 999
REV_AT_EPOCH   = 253
BSTAR          = -.39014867E-2
MEAN_MOTION_DOT = -.162637E-1
MEAN_MOTION_DDOT = .7774782E-3

CCSDS_OMM_VERS = 2.0
CREATION_DATE  = 
ORIGINATOR     = 

OBJECT_NAME    = COSMOS 2600
OBJECT_ID      = 2026-023A
CENTER_NAME    = EARTH
REF_FRAME      = TEME
TIME_SYSTEM    = UTC
MEAN_ELEMENT_THEORY = SGP/SGP4

EPOCH          = 2026-02-10T14:13:36.543648
MEAN_MOTION    = 15.81659645
ECCENTRICITY   = .00020883
INCLINATION    = 96.6495
RA_OF_ASC_NODE = 118.0877
ARG_OF_PERICENTER = 67.6151
MEAN_ANOMALY   = 292.5341

EPHEMERIS_TYPE = 0
CLASSIFICATION_TYPE = U
NORAD_CAT_ID   = 67674
ELEMENT_SET_NO = 999
REV_AT_EPOCH   = 76
BSTAR          = .36233034E-3
MEAN_MOTION_DOT = .72604E-3
MEAN_MOTION_DDOT = 0

CCSDS_OMM_VERS = 2.0
CREATION_DATE  = 
ORIGINATOR     = 

OBJECT_NAME    = 2026-023B
OBJECT_ID      = 2026-023B
CENTER_NAME    = EARTH
REF_FRAME      = TEME
TIME_SYSTEM    = UTC
MEAN_ELEMENT_THEORY = SGP/SGP4

EPOCH          = 2026-02-06T19:57:35.390304
MEAN_MOTION    = 15.22205300
ECCENTRICITY   = .00172194
INCLINATION    = 96.6397
RA_OF_ASC_NODE = 114.3547
ARG_OF_PERICENTER = 239.3232
MEAN_ANOMALY   = 120.6310

EPHEMERIS_TYPE = 0
CLASSIFICATION_TYPE = U
NORAD_CAT_ID   = 67675
ELEMENT_SET_NO = 999
REV_AT_EPOCH   = 16
BSTAR          = .13032448E-3
MEAN_MOTION_DOT = .2946E-4
MEAN_MOTION_DDOT = 0

CCSDS_OMM_VERS = 2.0
CREATION_DATE  = 
ORIGINATOR     = 

OBJECT_NAME    = 2026-023C
OBJECT_ID      = 2026-023C
CENTER_NAME    = EARTH
REF_FRAME      = TEME
TIME_SYSTEM    = UTC
MEAN_ELEMENT_THEORY = SGP/SGP4

EPOCH          = 2026-02-06T19:57:33.691680
MEAN_MOTION    = 15.22258115
ECCENTRICITY   = .0018177
INCLINATION    = 96.6444
RA_OF_ASC_NODE = 114.3671
ARG_OF_PERICENTER = 231.2308
MEAN_ANOMALY   = 128.7307

EPHEMERIS_TYPE = 0
CLASSIFICATION_TYPE = U
NORAD_CAT_ID   = 67676
ELEMENT_SET_NO = 999
REV_AT_EPOCH   = 15
BSTAR          = .27219E-3
MEAN_MOTION_DOT = .6231E-4
MEAN_MOTION_DDOT = 0

CCSDS_OMM_VERS = 2.0
CREATION_DATE  = 
ORIGINATOR     = 

OBJECT_NAME    = 2026-023D
OBJECT_ID      = 2026-023D
CENTER_NAME    = EARTH
REF_FRAME      = TEME
TIME_SYSTEM    = UTC
MEAN_ELEMENT_THEORY = SGP/SGP4

EPOCH          = 2026-02-10T13:53:19.781088
MEAN_MOTION    = 15.22250872
ECCENTRICITY   = .00185732
INCLINATION    = 96.6475
RA_OF_ASC_NODE = 117.6635
ARG_OF_PERICENTER = 222.9033
MEAN_ANOMALY   = 137.0757

EPHEMERIS_TYPE = 0
CLASSIFICATION_TYPE = U
NORAD_CAT_ID   = 67677
ELEMENT_SET_NO = 999
REV_AT_EPOCH   = 72
BSTAR          = .45553097E-3
MEAN_MOTION_DOT = .10473E-3
MEAN_MOTION_DDOT = 0

CCSDS_OMM_VERS = 2.0
CREATION_DATE  = 
ORIGINATOR     = 

OBJECT_NAME    = 2026-023E
OBJECT_ID      = 2026-023E
CENTER_NAME    = EARTH
REF_FRAME      = TEME
TIME_SYSTEM    = UTC
MEAN_ELEMENT_THEORY = SGP/SGP4

EPOCH          = 2026-02-06T19:57:34.936704
MEAN_MOTION    = 15.22227869
ECCENTRICITY   = .00181635
INCLINATION    = 96.6374
RA_OF_ASC_NODE = 114.3623
ARG_OF_PERICENTER = 237.2347
MEAN_ANOMALY   = 122.7142

EPHEMERIS_TYPE = 0
CLASSIFICATION_TYPE = U
NORAD_CAT_ID   = 67678
ELEMENT_SET_NO = 999
REV_AT_EPOCH   = 15
BSTAR          = .27128471E-3
MEAN_MOTION_DOT = .6205E-4
MEAN_MOTION_DDOT = 0

